{
  "type": "FeatureCollection",
  "features": [
    {
      "type": "Feature",
      "properties": {
        "norad_id": 66611,
        "name": "STARLINK-35583",
        "group": "last-30-days",
        "lat": -42.78849351813901,
        "lon": 30.629281232151623,
        "alt_km": 446.7865247950904,
        "timestamp": "2025-12-26T06:43:28.231855+00:00",
        "meta_object_name": "STARLINK-35583",
        "meta_object_id": "2025-270Z",
        "meta_epoch": "2025-12-25T17:05:26.222784",
        "meta_mean_motion": 15.40757863,
        "meta_eccentricity": 6.595e-05,
        "meta_inclination": 43.0004,
        "meta_ra_of_asc_node": 117.2753,
        "meta_arg_of_pericenter": 326.6033,
        "meta_mean_anomaly": 33.4782,
        "meta_ephemeris_type": 0,
        "meta_classification_type": "U",
        "meta_norad_cat_id": 66611,
        "meta_element_set_no": 999,
        "meta_rev_at_epoch": 646,
        "meta_bstar": 0.001409315,
        "meta_mean_motion_dot": 0.00059138,
        "meta_mean_motion_ddot": 0,
        "tle_line1": "1 66611U 25270Z   25359.71210906  .00059138  00000+0  14093-2 0  9990",
        "tle_line2": "2 66611  43.0004 117.2753 0000659 326.6033  33.4782 15.40757863  6461"
      },
      "geometry": {
        "type": "Point",
        "coordinates": [
          30.629281232151623,
          -42.78849351813901
        ]
      }
    },
    {
      "type": "Feature",
      "properties": {
        "norad_id": 66612,
        "name": "STARLINK-36039",
        "group": "last-30-days",
        "lat": 17.45105839714748,
        "lon": 134.32164040834752,
        "alt_km": 441.1778512042465,
        "timestamp": "2025-12-26T06:43:28.231866+00:00",
        "meta_object_name": "STARLINK-36039",
        "meta_object_id": "2025-270AA",
        "meta_epoch": "2025-12-25T01:03:04.009824",
        "meta_mean_motion": 15.40706418,
        "meta_eccentricity": 0.00011468,
        "meta_inclination": 42.9994,
        "meta_ra_of_asc_node": 121.733,
        "meta_arg_of_pericenter": 270.7369,
        "meta_mean_anomaly": 89.3356,
        "meta_ephemeris_type": 0,
        "meta_classification_type": "U",
        "meta_norad_cat_id": 66612,
        "meta_element_set_no": 999,
        "meta_rev_at_epoch": 624,
        "meta_bstar": 0.0010340794,
        "meta_mean_motion_dot": 0.00043146,
        "meta_mean_motion_ddot": 0,
        "tle_line1": "1 66612U 25270AA  25359.04379641  .00043146  00000+0  10341-2 0  9993",
        "tle_line2": "2 66612  42.9994 121.7330 0001146 270.7369  89.3356 15.40706418  6245"
      },
      "geometry": {
        "type": "Point",
        "coordinates": [
          134.32164040834752,
          17.45105839714748
        ]
      }
    },
    {
      "type": "Feature",
      "properties": {
        "norad_id": 66613,
        "name": "STARLINK-36037",
        "group": "last-30-days",
        "lat": 32.012173109011485,
        "lon": 156.68590778603752,
        "alt_km": 438.5403767207008,
        "timestamp": "2025-12-26T06:43:28.231876+00:00",
        "meta_object_name": "STARLINK-36037",
        "meta_object_id": "2025-270AB",
        "meta_epoch": "2025-12-25T08:43:22.456704",
        "meta_mean_motion": 15.40747703,
        "meta_eccentricity": 3.47e-05,
        "meta_inclination": 42.9973,
        "meta_ra_of_asc_node": 119.8307,
        "meta_arg_of_pericenter": 326.0918,
        "meta_mean_anomaly": 33.9916,
        "meta_ephemeris_type": 0,
        "meta_classification_type": "U",
        "meta_norad_cat_id": 66613,
        "meta_element_set_no": 999,
        "meta_rev_at_epoch": 629,
        "meta_bstar": 0.00097518,
        "meta_mean_motion_dot": 0.00040714,
        "meta_mean_motion_ddot": 0,
        "tle_line1": "1 66613U 25270AB  25359.36345436  .00040714  00000+0  97518-3 0  9994",
        "tle_line2": "2 66613  42.9973 119.8307 0000347 326.0918  33.9916 15.40747703  6296"
      },
      "geometry": {
        "type": "Point",
        "coordinates": [
          156.68590778603752,
          32.012173109011485
        ]
      }
    },
    {
      "type": "Feature",
      "properties": {
        "norad_id": 66614,
        "name": "STARLINK-36040",
        "group": "last-30-days",
        "lat": 11.400683519182707,
        "lon": -78.2279544474757,
        "alt_km": 442.43837595991954,
        "timestamp": "2025-12-26T06:43:28.231886+00:00",
        "meta_object_name": "STARLINK-36040",
        "meta_object_id": "2025-270AC",
        "meta_epoch": "2025-12-25T08:14:20.544576",
        "meta_mean_motion": 15.40744083,
        "meta_eccentricity": 0.0001175,
        "meta_inclination": 42.9964,
        "meta_ra_of_asc_node": 119.6723,
        "meta_arg_of_pericenter": 302.2675,
        "meta_mean_anomaly": 57.8067,
        "meta_ephemeris_type": 0,
        "meta_classification_type": "U",
        "meta_norad_cat_id": 66614,
        "meta_element_set_no": 999,
        "meta_rev_at_epoch": 613,
        "meta_bstar": 0.0012628,
        "meta_mean_motion_dot": 0.00052891,
        "meta_mean_motion_ddot": 0,
        "tle_line1": "1 66614U 25270AC  25359.34329334  .00052891  00000+0  12628-2 0  9999",
        "tle_line2": "2 66614  42.9964 119.6723 0001175 302.2675  57.8067 15.40744083  6136"
      },
      "geometry": {
        "type": "Point",
        "coordinates": [
          -78.2279544474757,
          11.400683519182707
        ]
      }
    },
    {
      "type": "Feature",
      "properties": {
        "norad_id": 66615,
        "name": "STARLINK-35988",
        "group": "last-30-days",
        "lat": 42.95328097456814,
        "lon": -158.07020189604805,
        "alt_km": 438.2174132435339,
        "timestamp": "2025-12-26T06:43:28.231896+00:00",
        "meta_object_name": "STARLINK-35988",
        "meta_object_id": "2025-270AD",
        "meta_epoch": "2025-12-25T16:20:27.897216",
        "meta_mean_motion": 15.40700329,
        "meta_eccentricity": 0.00016951,
        "meta_inclination": 43.0013,
        "meta_ra_of_asc_node": 117.9088,
        "meta_arg_of_pericenter": 260.634,
        "meta_mean_anomaly": 99.4325,
        "meta_ephemeris_type": 0,
        "meta_classification_type": "U",
        "meta_norad_cat_id": 66615,
        "meta_element_set_no": 999,
        "meta_rev_at_epoch": 618,
        "meta_bstar": 0.0010609961,
        "meta_mean_motion_dot": 0.00044275,
        "meta_mean_motion_ddot": 0,
        "tle_line1": "1 66615U 25270AD  25359.68087844  .00044275  00000+0  10610-2 0  9990",
        "tle_line2": "2 66615  43.0013 117.9088 0001695 260.6340  99.4325 15.40700329  6181"
      },
      "geometry": {
        "type": "Point",
        "coordinates": [
          -158.07020189604805,
          42.95328097456814
        ]
      }
    },
    {
      "type": "Feature",
      "properties": {
        "norad_id": 66616,
        "name": "STARLINK-35391",
        "group": "last-30-days",
        "lat": -5.84307502247019,
        "lon": -59.48769503444036,
        "alt_km": 443.97914172707533,
        "timestamp": "2025-12-26T06:43:28.231907+00:00",
        "meta_object_name": "STARLINK-35391",
        "meta_object_id": "2025-270AE",
        "meta_epoch": "2025-12-24T08:47:35.797920",
        "meta_mean_motion": 15.40729798,
        "meta_eccentricity": 9.163e-05,
        "meta_inclination": 42.9974,
        "meta_ra_of_asc_node": 125.2405,
        "meta_arg_of_pericenter": 275.8845,
        "meta_mean_anomaly": 84.1907,
        "meta_ephemeris_type": 0,
        "meta_classification_type": "U",
        "meta_norad_cat_id": 66616,
        "meta_element_set_no": 999,
        "meta_rev_at_epoch": 625,
        "meta_bstar": 0.0012253863,
        "meta_mean_motion_dot": 0.00051279,
        "meta_mean_motion_ddot": 0,
        "tle_line1": "1 66616U 25270AE  25358.36638655  .00051279  00000+0  12254-2 0  9995",
        "tle_line2": "2 66616  42.9974 125.2405 0000916 275.8845  84.1907 15.40729798  6250"
      },
      "geometry": {
        "type": "Point",
        "coordinates": [
          -59.48769503444036,
          -5.84307502247019
        ]
      }
    },
    {
      "type": "Feature",
      "properties": {
        "norad_id": 66617,
        "name": "STARLINK-35940",
        "group": "last-30-days",
        "lat": 12.959546808207424,
        "lon": 133.21641028966212,
        "alt_km": 446.09361507109406,
        "timestamp": "2025-12-26T06:43:28.231917+00:00",
        "meta_object_name": "STARLINK-35940",
        "meta_object_id": "2025-271A",
        "meta_epoch": "2025-12-25T15:04:28.881120",
        "meta_mean_motion": 15.39600088,
        "meta_eccentricity": 0.0001206,
        "meta_inclination": 53.1613,
        "meta_ra_of_asc_node": 126.3554,
        "meta_arg_of_pericenter": 97.0516,
        "meta_mean_anomaly": 263.0626,
        "meta_ephemeris_type": 0,
        "meta_classification_type": "U",
        "meta_norad_cat_id": 66617,
        "meta_element_set_no": 999,
        "meta_rev_at_epoch": 619,
        "meta_bstar": 0.0010268,
        "meta_mean_motion_dot": 0.00040863,
        "meta_mean_motion_ddot": 0,
        "tle_line1": "1 66617U 25271A   25359.62811205  .00040863  00000+0  10268-2 0  9991",
        "tle_line2": "2 66617  53.1613 126.3554 0001206  97.0516 263.0626 15.39600088  6191"
      },
      "geometry": {
        "type": "Point",
        "coordinates": [
          133.21641028966212,
          12.959546808207424
        ]
      }
    }
  ]
}